{
    "links": {
        "self": "http://www.neowsapp.com/rest/v1/neo/3653812?api_key=iIulBulltgU6a56xZRHN4H3l9WmuAYTsLGpBGhQ2"
    },
    "id": "3653812",
    "neo_reference_id": "3653812",
    "name": "(2013 WM)",
    "designation": "2013 WM",
    "nasa_jpl_url": "http://ssd.jpl.nasa.gov/sbdb.cgi?sstr=3653812",
    "absolute_magnitude_h": 23.9,
    "estimated_diameter": {
        "kilometers": {
            "estimated_diameter_min": 0.04411182,
            "estimated_diameter_max": 0.0986370281
        },
        "meters": {
            "estimated_diameter_min": 44.1118199997,
            "estimated_diameter_max": 98.6370281305
        },
        "miles": {
            "estimated_diameter_min": 0.0274098057,
            "estimated_diameter_max": 0.0612901888
        },
        "feet": {
            "estimated_diameter_min": 144.7238235278,
            "estimated_diameter_max": 323.6123073718
        }
    },
    "is_potentially_hazardous_asteroid": false,
    "close_approach_data": [
        {
            "close_approach_date": "2004-11-21",
            "close_approach_date_full": "2004-Nov-21 17:56",
            "epoch_date_close_approach": 1101059760000,
            "relative_velocity": {
                "kilometers_per_second": "37.7322129522",
                "kilometers_per_hour": "135835.966627916",
                "miles_per_hour": "84403.1871527737"
            },
            "miss_distance": {
                "astronomical": "0.077349981",
                "lunar": "30.089142609",
                "kilometers": "11571392.40214047",
                "miles": "7190129.827939686"
            },
            "orbiting_body": "Earth"
        },
        {
            "close_approach_date": "2013-11-19",
            "close_approach_date_full": "2013-Nov-19 08:17",
            "epoch_date_close_approach": 1384849020000,
            "relative_velocity": {
                "kilometers_per_second": "35.7005317113",
                "kilometers_per_hour": "128521.9141607542",
                "miles_per_hour": "79858.5193850531"
            },
            "miss_distance": {
                "astronomical": "0.0105217417",
                "lunar": "4.0929575213",
                "kilometers": "1574030.147010179",
                "miles": "978056.9802473102"
            },
            "orbiting_body": "Earth"
        }
    ],
    "orbital_data": {
        "orbit_id": "9",
        "orbit_determination_date": "2019-04-20 07:25:13",
        "first_observation_date": "2013-11-25",
        "last_observation_date": "2013-12-07",
        "data_arc_in_days": 12,
        "observations_used": 25,
        "orbit_uncertainty": "8",
        "minimum_orbit_intersection": ".00360636",
        "jupiter_tisserand_invariant": "3.004",
        "epoch_osculation": "2456624.5",
        "eccentricity": ".9162097945609626",
        "semi_major_axis": "2.083089568863811",
        "inclination": "4.156553738403666",
        "ascending_node_longitude": "239.4058062461144",
        "orbital_period": "1098.146655274473",
        "perihelion_distance": ".1745425029230145",
        "perihelion_argument": "40.9006156845505",
        "aphelion_distance": "3.991636634804607",
        "perihelion_time": "2456579.433650721311",
        "mean_anomaly": "14.77387893721081",
        "mean_motion": ".3278250662340003",
        "equinox": "J2000",
        "orbit_class": {
            "orbit_class_type": "APO",
            "orbit_class_description": "Near-Earth asteroid orbits which cross the Earth’s orbit similar to that of 1862 Apollo",
            "orbit_class_range": "a (semi-major axis) > 1.0 AU; q (perihelion) < 1.017 AU"
        }
    },
    "is_sentry_object": false
}